OBJECT_NAME,OBJECT_ID,EPOCH,MEAN_MOTION,ECCENTRICITY,INCLINATION,RA_OF_ASC_NODE,ARG_OF_PERICENTER,MEAN_ANOMALY,EPHEMERIS_TYPE,CLASSIFICATION_TYPE,NORAD_CAT_ID,ELEMENT_SET_NO,REV_AT_EPOCH,BSTAR,MEAN_MOTION_DOT,MEAN_MOTION_DDOT
TJS-11,2024-037A,2026-06-17T20:48:01.131264,1.00275264,.0003153,4.1983,327.1045,105.7731,257.8449,0,U,59020,999,859,0,-.369E-5,0
STARLINK-30996,2024-038A,2026-06-18T10:09:17.074656,15.27590779,.00018218,43.0027,178.1656,274.1034,85.9609,0,U,59023,999,13153,.23754491E-4,.392E-5,0
STARLINK-31006,2024-038B,2026-06-18T14:24:06.168960,15.27572891,.00012985,43.0036,126.7230,296.5029,63.5689,0,U,59024,999,13077,.17979599E-4,.233E-5,0
STARLINK-31178,2024-038C,2026-06-18T10:24:06.585120,15.27579320,.00013572,43.0019,178.2416,282.5754,77.4946,0,U,59025,999,13005,.30332197E-4,.573E-5,0
STARLINK-30863,2024-038E,2026-06-18T10:55:39.316224,15.27559795,.00023633,43.0063,178.3962,289.9274,70.1323,0,U,59027,999,13005,-.9253517E-3,-.25624E-3,0
STARLINK-31206,2024-038F,2026-06-18T04:10:03.995040,15.27579403,.00015743,43.0041,114.5353,263.8031,96.2642,0,U,59028,999,13089,.26995788E-4,.481E-5,0
STARLINK-31224,2024-038G,2026-06-18T11:17:33.811008,15.27573500,.00010306,43.0005,177.6626,284.4682,75.6055,0,U,59029,999,13017,.7020919E-5,-.69E-6,0
STARLINK-31186,2024-038H,2026-06-18T07:21:20.681568,15.27578059,.00014938,43.0007,179.0045,274.7217,85.3464,0,U,59030,999,13014,.21077575E-4,.318E-5,0
STARLINK-31211,2024-038J,2026-06-18T11:10:09.480864,15.27573599,.00010443,43.0012,177.6216,276.2517,83.8216,0,U,59031,999,13006,-.6100667E-5,-.43E-5,0
STARLINK-30862,2024-038K,2026-06-18T09:10:21.043200,15.27573048,.00016599,43.0036,167.5205,274.6788,85.3874,0,U,59032,999,13017,-.3680423E-5,-.364E-5,0
STARLINK-31210,2024-038L,2026-06-18T10:13:42.578400,15.27576606,.00013199,43.0018,174.7392,275.0330,85.0371,0,U,59033,999,13026,.15327404E-4,.16E-5,0
STARLINK-31231,2024-038M,2026-06-18T10:08:04.679232,15.27635958,.0002377,43.0046,174.7126,265.2622,94.7959,0,U,59034,999,13009,.644641E-5,-.85E-6,0
STARLINK-31207,2024-038N,2026-06-18T11:36:46.079424,15.27575125,.00010559,43.0009,174.3120,280.2630,79.8103,0,U,59035,999,13027,.14906987E-4,.148E-5,0
STARLINK-31217,2024-038P,2026-06-18T03:27:55.704672,15.27579779,.00009518,43.0033,81.9019,275.0948,84.9795,0,U,59036,999,13130,.21487033E-4,.329E-5,0
STARLINK-31208,2024-038Q,2026-06-18T12:35:16.279872,15.27573445,.00012439,42.9997,178.0331,271.3297,88.7412,0,U,59037,999,13023,-.14291121E-4,-.655E-5,0
STARLINK-31235,2024-038R,2026-06-18T02:08:07.115136,15.27578004,.0001491,43.0001,176.5048,268.9295,91.1386,0,U,59038,999,13015,.2394251E-4,.397E-5,0
STARLINK-31220,2024-038S,2026-06-18T10:01:54.075072,15.27577205,.00016684,43.0035,178.1243,275.1868,84.8794,0,U,59039,999,13016,.19917292E-4,.286E-5,0
STARLINK-31225,2024-038T,2026-06-18T11:12:42.615360,15.27561789,.00003915,43.0007,174.1488,285.0119,75.0689,0,U,59040,999,13010,-.46264564E-3,-.12963E-3,0
STARLINK-31240,2024-038U,2026-06-18T01:09:07.390944,15.27574649,.00012149,42.9995,177.0596,276.1750,83.8963,0,U,59041,999,13014,.247268E-5,-.194E-5,0
STARLINK-31202,2024-038V,2026-06-18T08:46:48.083520,15.28754618,.0002588,43.0007,174.2945,182.0631,178.0211,0,U,59042,999,13026,.1611999E-3,.4335E-4,0
STARLINK-31234,2024-038W,2026-06-18T08:50:39.508512,15.27586943,.00008359,43.0047,175.1657,270.2159,89.8597,0,U,59043,999,13008,.97214704E-4,.2415E-4,0
STARLINK-31153,2024-038X,2026-06-18T09:53:20.944608,15.27579457,.00018374,43.0030,174.6318,277.5305,82.5338,0,U,59044,999,13009,.35714368E-4,.721E-5,0
STARLINK-31241,2024-038Y,2026-06-18T08:56:13.667424,15.27559494,.00013442,43.0018,175.1926,277.3555,82.7144,0,U,59045,999,13025,-.5873474E-4,-.1877E-4,0
STARLINK-31205,2024-038Z,2026-06-18T00:54:19.263744,15.27577411,.00014646,43.0042,176.9819,261.9332,98.1354,0,U,59046,999,13014,.1882138E-4,.256E-5,0
METEOR-M2 4,2024-039A,2026-06-18T14:09:59.690016,14.22429656,.00073706,98.7011,128.8707,157.0729,203.0779,0,U,59051,999,11946,.22546591E-4,.6E-7,0
PARS 1,2024-039Q,2026-06-18T14:37:18.926112,15.45748463,.00115352,97.4826,150.5738,107.4492,252.8019,0,U,59065,999,12886,.18527455E-3,.8888E-4,0
SITRO-AIS 25,2024-039R,2026-06-18T13:58:17.481792,14.93519055,.0143275,95.3904,236.0513,323.8249,35.3349,0,U,59066,999,12493,.18053694E-3,.229E-4,0
SITRO-AIS 26,2024-039S,2026-06-18T14:00:32.487840,14.93315282,.01436793,95.3910,235.9495,324.4327,34.7385,0,U,59067,999,12492,.16958872E-3,.2139E-4,0
SITRO-AIS 27,2024-039T,2026-06-18T14:53:35.455200,14.93736460,.01426503,95.3911,236.2474,322.9116,36.2316,0,U,59068,999,12495,.13273061E-3,.1681E-4,0
HULIANWAN GAOGUI-01 (HG-01),2024-040A,2026-06-18T01:06:18.317376,1.00271503,.00028349,0.0671,331.6116,65.8323,278.9846,0,U,59069,999,733,0,.15E-5,0
SITRO-AIS 28,2024-039U,2026-06-18T14:21:04.053312,14.93769557,.01425876,95.3912,236.2791,322.8142,36.3272,0,U,59071,999,12495,.18086065E-3,.2306E-4,0
MARAFON-D GVM,2024-039V,2026-06-18T14:47:11.366592,14.46011541,.00154988,88.9830,283.6761,339.6903,20.3683,0,U,59072,999,12139,.54656071E-4,.21E-5,0
STARLINK-31265,2024-041A,2026-06-18T12:43:20.459424,15.27582432,.00009067,43.0028,101.2214,278.3568,81.7181,0,U,59074,999,12969,.60254943E-4,.1397E-4,0
STARLINK-31276,2024-041B,2026-06-18T11:57:05.446080,15.27547330,.00007728,43.0001,100.9831,269.9623,90.1140,0,U,59075,999,12974,.26238896E-3,.6958E-4,0
STARLINK-31259,2024-041C,2026-06-18T12:02:37.572864,15.27577410,.00009308,43.0022,101.0103,261.2878,98.7868,0,U,59076,999,12864,.90596E-6,-.237E-5,0
STARLINK-31281,2024-041D,2026-06-18T12:08:11.629824,15.27551205,.00000822,43.0029,101.0397,134.0398,226.0460,0,U,59077,999,12974,.27969056E-3,.7436E-4,0
STARLINK-31274,2024-041E,2026-06-18T04:59:57.126912,15.27577778,.00011483,43.0029,103.1037,287.8193,72.2533,0,U,59078,999,12964,.32385582E-4,.629E-5,0
STARLINK-31257,2024-041F,2026-06-18T12:26:40.899552,15.27576229,.00010011,43.0030,101.1357,267.1454,92.9283,0,U,59079,999,12969,-.292801E-6,-.27E-5,0
STARLINK-31292,2024-041H,2026-06-18T12:13:43.671936,15.27577527,.00010447,43.0032,101.0679,280.0981,79.9753,0,U,59081,999,12968,.8006224E-5,-.42E-6,0
STARLINK-31286,2024-041J,2026-06-18T12:19:17.366016,15.27576233,.00015803,43.0019,101.0991,272.4130,87.6541,0,U,59082,999,12977,.98605023E-4,.2452E-4,0
STARLINK-31252,2024-041K,2026-06-18T07:27:59.300064,15.27577204,.00008882,43.0030,19.2625,263.5202,96.5549,0,U,59083,999,13066,.2517248E-4,.431E-5,0
STARLINK-31261,2024-041L,2026-06-18T12:59:59.520768,15.27576563,.00016073,43.0047,101.3009,262.9649,97.1020,0,U,59084,999,12974,.31008696E-4,.591E-5,0
STARLINK-31290,2024-041M,2026-06-18T11:56:08.543040,15.27575115,.00019341,43.0047,87.1301,294.3177,65.7473,0,U,59085,999,12999,-.62839198E-4,-.1991E-4,0
STARLINK-31279,2024-041N,2026-06-18T03:55:23.994624,15.27578692,.00011094,42.9996,103.6224,262.0784,97.9942,0,U,59086,999,12968,.28258906E-4,.516E-5,0
STARLINK-31266,2024-041P,2026-06-18T12:24:49.675104,15.27575717,.00009797,43.0010,101.1262,265.5693,94.5046,0,U,59087,999,12974,.26921408E-4,.479E-5,0
STARLINK-31313,2024-041Q,2026-06-18T12:28:32.115360,15.27572468,.00008333,43.0037,101.1431,272.6742,87.4014,0,U,59088,999,12969,.5694192E-5,-.105E-5,0
STARLINK-31307,2024-041R,2026-06-18T12:22:59.019168,15.27564170,.00009075,43.0019,101.1198,268.6309,91.4438,0,U,59089,999,12974,-.60200327E-4,-.1917E-4,0
STARLINK-31316,2024-041S,2026-06-18T09:19:36.850944,15.27573943,.00012396,43.0014,55.1946,265.2059,94.8651,0,U,59090,999,13015,-.14667797E-4,-.666E-5,0
STARLINK-31310,2024-041U,2026-06-18T11:55:26.411808,15.27573160,.00009751,43.0003,101.8251,272.0816,87.9924,0,U,59092,999,12968,.3382968E-4,.669E-5,0
STARLINK-31343,2024-041V,2026-06-17T02:39:37.275840,15.27597897,.00016467,43.0050,109.4823,263.4388,96.6276,0,U,59093,999,12952,.11716066E-3,.2965E-4,0
STARLINK-31295,2024-041X,2026-06-18T12:39:38.380320,15.27571403,.00014659,43.0082,101.1939,266.4812,93.5872,0,U,59095,999,12969,.42165361E-4,.898E-5,0
STARLINK-31291,2024-041Y,2026-06-18T12:35:55.724928,15.27576438,.00013136,43.0046,101.1774,278.2466,81.8237,0,U,59096,999,12969,.13622604E-4,.113E-5,0
HORACIO,2024-043A,2026-06-18T14:56:34.347264,14.98522887,.00106698,97.8507,301.4083,19.1568,341.0053,0,U,59098,999,12488,.13006531E-3,.1497E-4,0
MUSAT-2,2024-043B,2026-06-18T15:34:27.350688,15.08614994,.00062867,97.8614,308.3333,339.1476,20.9494,0,U,59099,999,12531,.33125531E-3,.5118E-4,0
ICEYE-X38,2024-043C,2026-06-18T15:19:49.392768,15.12865526,.00039177,97.8410,313.4249,86.3759,273.7919,0,U,59100,999,11189,.19953803E-3,.344E-4,0
ICEYE-X37,2024-043E,2026-06-18T15:24:53.244288,15.06129135,.00152024,97.8322,306.6654,10.7039,349.4508,0,U,59102,999,12530,.20112772E-3,.2883E-4,0
ICEYE-X36,2024-043F,2026-06-18T15:29:05.504640,15.06875380,.00048025,97.8380,307.7419,327.2004,32.8924,0,U,59103,999,12536,.20934143E-3,.3059E-4,0
PE2_FLT2  (TYVAK-0262),2024-043G,2026-06-18T14:10:52.218624,14.97229407,.00072497,97.8405,300.2714,49.6859,310.4995,0,U,59104,999,12486,.19357478E-3,.2182E-4,0
PE2_FLT1 (TYVAK-0261),2024-043H,2026-06-18T07:46:09.682752,14.97220386,.00071313,97.8399,299.9684,47.5525,312.6298,0,U,59105,999,12482,.18678404E-3,.2102E-4,0
RROCI-2,2024-043J,2026-06-18T07:41:24.266400,14.99940378,.00108554,97.8491,302.0833,24.3916,335.7818,0,U,59106,999,12493,.21685228E-3,.2634E-4,0
BRO-13,2024-043K,2026-06-18T13:31:12.900864,14.96593984,.00086802,97.8494,300.5860,2.8545,357.2724,0,U,59107,999,12482,.84807245E-4,.906E-5,0
BRO-12,2024-043L,2026-06-18T15:01:33.407040,14.96838073,.0007954,97.8480,300.8126,357.2649,2.8527,0,U,59108,999,12485,.83551264E-4,.898E-5,0
SONATE-2,2024-043Q,2026-06-17T23:20:56.168448,15.58769943,.00070884,97.5538,319.4165,192.8072,167.3005,0,U,59112,999,12801,.43245733E-3,.33352E-3,0
CONTECSAT-1,2024-043V,2026-06-18T15:40:26.041152,15.36650186,.00093779,97.5652,310.7113,224.0326,136.0172,0,U,59117,999,12747,.21014201E-3,.7445E-4,0
